NORAD_CAT_ID,OBJECT_NAME,OBJECT_TYPE,EPOCH,MEAN_MOTION,ECCENTRICITY,INCLINATION,RA_OF_ASC_NODE,ARG_OF_PERICENTER,MEAN_ANOMALY,BSTAR,MEAN_MOTION_DOT,MEAN_MOTION_DDOT,TLE_LINE0,TLE_LINE1,TLE_LINE2,SEMIMAJOR_AXIS,PERIOD,APOGEE,PERIGEE,DECAYED
56815.0,STARLINK-6057,PAYLOAD,2024-06-24 05:53:11,14.98332311,0.0003052,69.9997,116.5121,266.9611,93.1198,1.8511e-05,1.28e-06,0.0,0 STARLINK-6057,1 56815U 23078BA  24176.24527121  .00000128  00000-0  18511-4 0  9990,2 56815  69.9997 116.5121 0003052 266.9611  93.1198 14.98332311 59295,6950.186,96.107,574.172,569.93,0.0
56815.0,STARLINK-6057,PAYLOAD,2024-06-24 21:54:32,14.98328956,0.0003041,69.9998,114.8292,267.6268,92.4542,2.4306e-05,1.97e-06,0.0,0 STARLINK-6057,1 56815U 23078BA  24176.91287275  .00000197  00000-0  24306-4 0  9992,2 56815  69.9998 114.8292 0003041 267.6268  92.4542 14.98328956 59396,6950.196,96.107,574.175,569.948,0.0
56815.0,STARLINK-6057,PAYLOAD,2024-06-25 04:19:04,14.98330964,0.0003014,69.9998,114.1559,267.3558,92.7256,4.7913e-05,4.79e-06,0.0,0 STARLINK-6057,1 56815U 23078BA  24177.17991090  .00000479  00000-0  47913-4 0  9990,2 56815  69.9998 114.1559 0003014 267.3558  92.7256 14.98330964 59694,6950.19,96.107,574.15,569.96,0.0
56815.0,STARLINK-6057,PAYLOAD,2024-06-25 05:55:12,14.98331295,0.0003013,69.9999,113.9876,267.3859,92.6955,5.0492e-05,5.1e-06,0.0,0 STARLINK-6057,1 56815U 23078BA  24177.24667058  .00000510  00000-0  50492-4 0  9994,2 56815  69.9999 113.9876 0003013 267.3859  92.6955 14.98331295 59443,6950.189,96.107,574.148,569.96,0.0
56815.0,STARLINK-6057,PAYLOAD,2024-06-25 21:56:32,14.98332548,0.000294,70.0,112.3051,264.6448,95.4376,2.9759e-05,2.62e-06,0.0,0 STARLINK-6057,1 56815U 23078BA  24177.91426951  .00000262  00000-0  29759-4 0  9999,2 56815  70.0000 112.3051 0002940 264.6448  95.4376 14.98332548 59540,6950.185,96.107,574.093,570.007,0.0
56815.0,STARLINK-6057,PAYLOAD,2024-06-26 04:21:04,14.9833418,0.0002912,70.0,111.6319,264.399,95.6837,4.8378e-05,4.84e-06,0.0,0 STARLINK-6057,1 56815U 23078BA  24178.18130751  .00000484  00000-0  48378-4 0  9993,2 56815  70.0000 111.6319 0002912 264.3990  95.6837 14.98334180 59848,6950.18,96.107,574.069,570.021,0.0
56815.0,STARLINK-6057,PAYLOAD,2024-06-26 05:57:13,14.98334344,0.0002914,70.0,111.4635,264.6777,95.4049,4.9204e-05,4.94e-06,0.0,0 STARLINK-6057,1 56815U 23078BA  24178.24806722  .00000494  00000-0  49204-4 0  9998,2 56815  70.0000 111.4635 0002914 264.6777  95.4049 14.98334344 59592,6950.179,96.107,574.07,570.019,0.0
56815.0,STARLINK-6057,PAYLOAD,2024-06-27 04:23:06,14.98325366,0.0002722,70.0006,109.1075,265.0344,95.0505,-3.011e-05,-4.52e-06,0.0,0 STARLINK-6057,1 56815U 23078BA  24179.18271611 -.00000452  00000-0 -30110-4 0  9997,2 56815  70.0006 109.1075 0002722 265.0344  95.0505 14.98325366 59993,6950.207,96.107,573.964,570.18,0.0
56815.0,STARLINK-6057,PAYLOAD,2024-06-27 20:24:26,14.9833267,0.0002855,70.0002,107.424,264.6045,95.4788,3.7524e-06,-4.8e-07,0.0,0 STARLINK-6057,1 56815U 23078BA  24179.85031068 -.00000048  00000-0  37524-5 0  9998,2 56815  70.0002 107.4240 0002855 264.6045  95.4788 14.98332670 60090,6950.185,96.107,574.034,570.065,0.0
56815.0,STARLINK-6057,PAYLOAD,2024-06-27 22:00:34,14.98332772,0.0002864,70.0003,107.2556,264.7529,95.3303,4.6345e-06,-3.8e-07,0.0,0 STARLINK-6057,1 56815U 23078BA  24179.91707047 -.00000038  00000-0  46345-5 0  9992,2 56815  70.0003 107.2556 0002864 264.7529  95.3303 14.98332772 59843,6950.184,96.107,574.04,570.059,0.0
56815.0,STARLINK-6057,PAYLOAD,2024-06-28 12:25:47,14.98335309,0.0002913,70.0003,105.7402,267.6179,92.4646,6.3186e-05,6.61e-06,0.0,0 STARLINK-6057,1 56815U 23078BA  24180.51790618  .00000661  00000-0  63186-4 0  9998,2 56815  70.0003 105.7402 0002913 267.6179  92.4646 14.98335309 59931,6950.176,96.107,574.066,570.017,0.0
56815.0,STARLINK-6057,PAYLOAD,2024-06-28 20:26:27,14.98334427,0.0003034,70.0,104.8983,268.5444,91.5368,8.4678e-05,9.18e-06,0.0,0 STARLINK-6057,1 56815U 23078BA  24180.85170560  .00000918  00000-0  84678-4 0  9997,2 56815  70.0000 104.8983 0003034 268.5444  91.5368 14.98334427 60249,6950.179,96.107,574.153,569.936,0.0
56815.0,STARLINK-6057,PAYLOAD,2024-06-28 22:02:35,14.98334619,0.0003037,70.0001,104.73,268.5268,91.5544,8.5037e-05,9.22e-06,0.0,0 STARLINK-6057,1 56815U 23078BA  24180.91846527  .00000922  00000-0  85037-4 0  9992,2 56815  70.0001 104.7300 0003037 268.5268  91.5544 14.98334619 59998,6950.179,96.107,574.154,569.933,0.0
56815.0,STARLINK-6057,PAYLOAD,2024-06-29 04:27:06,14.98342122,0.0002937,70.0002,104.0568,267.5552,92.5271,0.00016847,1.918e-05,0.0,0 STARLINK-6057,1 56815U 23078BA  24181.18549713  .00001918  00000-0  16847-3 0  9997,2 56815  70.0002 104.0568 0002937 267.5552  92.5271 14.98342122 60292,6950.155,96.106,574.062,569.979,0.0
56815.0,STARLINK-6057,PAYLOAD,2024-06-29 12:27:48,14.98330888,0.0002895,69.9999,103.214,272.6322,87.4506,1.6272e-05,1.01e-06,0.0,0 STARLINK-6057,1 56815U 23078BA  24181.51930756  .00000101  00000-0  16272-4 0  9991,2 56815  69.9999 103.2140 0002895 272.6322  87.4506 14.98330888 60342,6950.19,96.107,574.067,570.043,0.0
56815.0,STARLINK-6057,PAYLOAD,2024-06-29 20:28:29,14.98320519,0.0002763,69.9989,102.3693,270.608,89.4762,-4.0255e-05,-5.73e-06,0.0,0 STARLINK-6057,1 56815U 23078BA  24181.85311660 -.00000573  00000-0 -40255-4 0  9998,2 56815  69.9989 102.3693 0002763 270.6080  89.4762 14.98320519 60398,6950.222,96.108,574.008,570.167,0.0
56815.0,STARLINK-6057,PAYLOAD,2024-06-29 22:04:37,14.98319334,0.0002793,69.9987,102.2008,270.3687,89.7152,-5.1214e-05,-7.04e-06,0.0,0 STARLINK-6057,1 56815U 23078BA  24181.91987787 -.00000704  00000-0 -51214-4 0  9997,2 56815  69.9987 102.2008 0002793 270.3687  89.7152 14.98319334 60140,6950.226,96.108,574.032,570.15,0.0
56815.0,STARLINK-6057,PAYLOAD,2024-06-30 04:29:10,14.98319049,0.0002952,70.0,101.5328,271.504,88.5781,-0.00014707,-1.847e-05,0.0,0 STARLINK-6057,1 56815U 23078BA  24182.18692290 -.00001847  00000-0 -14707-3 0  9993,2 56815  70.0000 101.5328 0002952 271.5040  88.5781 14.98319049 60181,6950.227,96.108,574.143,570.04,0.0
56815.0,STARLINK-6057,PAYLOAD,2024-06-30 20:30:29,14.98333015,0.0003113,69.9998,99.8484,272.1968,87.8835,7.0432e-06,-9e-08,0.0,0 STARLINK-6057,1 56815U 23078BA  24182.85451117 -.00000009  00000-0  70432-5 0  9995,2 56815  69.9998  99.8484 0003113 272.1968  87.8835 14.98333015 60543,6950.184,96.107,574.212,569.885,0.0
56815.0,STARLINK-6057,PAYLOAD,2024-06-30 22:06:37,14.98333283,0.0003113,69.9998,99.6801,272.2236,87.8566,1.1693e-05,4.7e-07,0.0,0 STARLINK-6057,1 56815U 23078BA  24182.92127085  .00000047  00000-0  11693-4 0  9991,2 56815  69.9998  99.6801 0003113 272.2236  87.8566 14.98333283 60293,6950.183,96.107,574.211,569.884,0.0
56815.0,STARLINK-6057,PAYLOAD,2024-07-01 04:31:09,14.98340587,0.0003219,69.9998,99.0065,275.9453,84.1339,0.00012242,1.368e-05,0.0,0 STARLINK-6057,1 56815U 23078BA  24183.18830266  .00001368  00000-0  12242-3 0  9999,2 56815  69.9998  99.0065 0003219 275.9453  84.1339 14.98340587 60593,6950.16,96.106,574.262,569.788,0.0
56815.0,STARLINK-6057,PAYLOAD,2024-07-01 20:32:30,14.98321077,0.0002851,70.0002,97.3231,273.9067,86.1766,0.00019075,2.183e-05,0.0,0 STARLINK-6057,1 56815U 23078BA  24183.85591252  .00002183  00000-0  19075-3 0  9999,2 56815  70.0002  97.3231 0002851 273.9067  86.1766 14.98321077 60698,6950.22,96.108,574.067,570.104,0.0
56815.0,STARLINK-6057,PAYLOAD,2024-07-01 22:08:38,14.98322627,0.0002737,70.0004,97.1546,273.874,86.2106,0.00018796,2.15e-05,0.0,0 STARLINK-6057,1 56815U 23078BA  24183.92267215  .00002150  00000-0  18796-3 0  9999,2 56815  70.0004  97.1546 0002737 273.8740  86.2106 14.98322627 60441,6950.216,96.107,573.983,570.178,0.0
56815.0,STARLINK-6057,PAYLOAD,2024-07-02 04:33:10,14.98348349,0.0002912,70.0005,96.4819,278.9438,81.1392,-0.00011745,-1.495e-05,0.0,0 STARLINK-6057,1 56815U 23078BA  24184.18970271 -.00001495  00000-0 -11745-3 0  9991,2 56815  70.0005  96.4819 0002912 278.9438  81.1392 14.98348349 60745,6950.136,96.106,574.025,569.977,0.0
56815.0,STARLINK-6057,PAYLOAD,2024-07-02 20:34:31,14.9833154,0.0002806,70.0004,94.799,273.8525,86.2313,-5.0463e-05,-6.95e-06,0.0,0 STARLINK-6057,1 56815U 23078BA  24184.85731357 -.00000695  00000-0 -50463-4 0  9997,2 56815  70.0004  94.7990 0002806 273.8525  86.2313 14.98331540 60843,6950.188,96.107,574.003,570.103,0.0
56815.0,STARLINK-6057,PAYLOAD,2024-07-02 22:10:39,14.98331947,0.0002762,70.0009,94.631,266.8327,93.2516,-5.4091e-05,-7.38e-06,0.0,0 STARLINK-6057,1 56815U 23078BA  24184.92407295 -.00000738  00000-0 -54091-4 0  9995,2 56815  70.0009  94.6310 0002762 266.8327  93.2516 14.98331947 60592,6950.187,96.107,573.972,570.132,0.0
56815.0,STARLINK-6057,PAYLOAD,2024-07-03 20:36:32,14.98332905,0.0002813,70.0005,92.2753,263.3755,96.7084,-5.5658e-07,-1e-06,0.0,0 STARLINK-6057,1 56815U 23078BA  24185.85870872 -.00000100  00000-0 -55658-6 0  9998,2 56815  70.0005  92.2753 0002813 263.3755  96.7084 14.98332905 60994,6950.184,96.107,574.004,570.094,0.0
56815.0,STARLINK-6057,PAYLOAD,2024-07-03 22:12:40,14.98332535,0.0002819,70.0006,92.1071,262.8988,97.185,-2.9882e-06,-1.29e-06,0.0,0 STARLINK-6057,1 56815U 23078BA  24185.92546889 -.00000129  00000-0 -29882-5 0  9994,2 56815  70.0006  92.1071 0002819 262.8988  97.1850 14.98332535 60743,6950.185,96.107,574.009,570.091,0.0
56815.0,STARLINK-6057,PAYLOAD,2024-07-04 11:01:44,14.98333801,0.0002919,70.0002,90.7604,266.6564,93.4261,-2.7949e-05,-4.26e-06,0.0,0 STARLINK-6057,1 56815U 23078BA  24186.45954757 -.00000426  00000-0 -27949-4 0  9991,2 56815  70.0002  90.7604 0002919 266.6564  93.4261 14.98333801 60829,6950.181,96.107,574.075,570.017,0.0
56815.0,STARLINK-6057,PAYLOAD,2024-07-04 20:38:33,14.98327163,0.000288,70.0004,89.7507,268.4607,91.6223,3.2202e-05,2.91e-06,0.0,0 STARLINK-6057,1 56815U 23078BA  24186.86011078  .00000291  00000-0  32202-4 0  9992,2 56815  70.0004  89.7507 0002880 268.4607  91.6223 14.98327163 61144,6950.202,96.107,574.068,570.065,0.0
